0 IRIDIUM 33 DEB
1 33959U 97051BU  13281.61004737  .00001194  00000-0  51822-3 0  3208
2 33959 086.3711 143.9201 0090601 080.3631 336.3054 14.21202678240535
0 IRIDIUM 33 DEB
1 33959U 97051BU  13283.10056619  .00001224  00000-0  53132-3 0  3211
2 33959 086.3711 143.3059 0090720 075.7465 042.1553 14.21209858240741
0 IRIDIUM 33 DEB
1 33959U 97051BU  13284.15834262  .00001269  00000-0  55112-3 0  3225
2 33959 086.3710 142.8702 0090838 072.4690 054.0113 14.21211865240894
0 IRIDIUM 33 DEB
1 33959U 97051BU  13285.35497804  .00001092  00000-0  47259-3 0  3233
2 33959 086.3710 142.3772 0090982 068.7787 056.3009 14.21214713241065
0 IRIDIUM 33 DEB
1 33959U 97051BU  13286.40908189  .00001102  00000-0  47715-3 0  3243
2 33959 086.3708 141.9429 0091083 065.5264 049.3751 14.21217180241218
0 IRIDIUM 33 DEB
1 33959U 97051BU  13287.66709529  .00001273  00000-0  55247-3 0  3258
2 33959 086.3707 141.4246 0091178 061.6315 005.7271 14.21221333241395
0 IRIDIUM 33 DEB
1 33959U 97051BU  13289.09499227  .00001245  00000-0  53995-3 0  3266
2 33959 086.3706 140.8362 0091280 057.2326 111.2559 14.21226905241597
0 IRIDIUM 33 DEB
1 33959U 97051BU  13290.62226226  .00001244  00000-0  53964-3 0  3270
2 33959 086.3705 140.2069 0091319 052.4915 005.2690 14.21230383241816
0 IRIDIUM 33 DEB
1 33959U 97051BU  13291.68060847  .00001270  00000-0  55116-3 0  3283
2 33959 086.3705 139.7708 0091369 049.2116 020.1246 14.21232410241963
0 IRIDIUM 33 DEB
1 33959U 97051BU  13293.03483654  .00001340  00000-0  58194-3 0  3297
2 33959 086.3705 139.2127 0091378 045.0098 108.8278 14.21234919242153
0 IRIDIUM 33 DEB
1 33959U 97051BU  13294.08540265  .00001345  00000-0  58390-3 0  3300
2 33959 086.3706 138.7798 0091396 041.7521 083.8971 14.21238301242304
0 IRIDIUM 33 DEB
1 33959U 97051BU  13295.35136697  .00001414  00000-0  61463-3 0  3314
2 33959 086.3705 138.2581 0091386 037.8062 081.0560 14.21242232242484
